BEIDOU-2 G3             
1 36590U 10024A   26183.67374083 -.00000127  00000+0  00000+0 0  9997
2 36590   4.5505  61.4499 0007935 357.6659 183.8078  1.00270893 58921
BADR-5                  
1 36592U 10025A   26183.58850093  .00000164  00000+0  00000+0 0  9990
2 36592   0.0532 116.9430 0004395  71.8102 334.1971  1.00270077 53371
COMS 1                  
1 36744U 10032A   26183.30008567 -.00000079  00000+0  00000+0 0  9994
2 36744   4.8416  75.1789 0011810  13.6965 312.7503  0.99168940 51235
ARABSAT-5A              
1 36745U 10032B   26183.23218193  .00000164  00000+0  00000+0 0  9999
2 36745   0.0823  58.1154 0005750  58.2605 277.9898  1.00274494 58797
ECHOSTAR 15             
1 36792U 10034A   26183.55901963  .00000010  00000+0  00000+0 0  9992
2 36792   0.0362 284.6056 0002627 149.5487 288.9010  1.00270003 58471
BEIDOU-2 IGSO-1         
1 36828U 10036A   26181.37475325 -.00000082  00000+0  00000+0 0  9990
2 36828  54.3057 162.8407 0058827 225.1163 132.8817  1.00268449 58222
NILESAT 201             
1 36830U 10037A   26183.36728350 -.00000047  00000+0  00000+0 0  9995
2 36830   0.0443 202.1964 0005450 284.7337 278.7042  1.00272073 58527
RASCOM-QAF 1R           
1 36831U 10037B   26183.36927683  .00000029  00000+0  00000+0 0  9995
2 36831   0.0077  36.5331 0006547  56.8823 322.8209  1.00271327 58453
AEHF-1 (USA 214)        
1 36868U 10039A   26183.30337903  .00000154  00000+0  00000+0 0  9990
2 36868   8.2558  67.8476 0004130  30.1369 321.5352  1.00269211 53808
XM-5                    
1 37185U 10053A   26183.48725483 -.00000013  00000+0  00000+0 0  9997
2 37185   0.0660 267.8225 0002503 285.3516 147.5652  1.00274106 57632
BSAT-3B                 
1 37207U 10056B   26183.59556198 -.00000339  00000+0  00000+0 0  9993
2 37207   0.0613 233.3611 0002369 296.1339  75.3666  1.00269228 52250
BEIDOU-2 G4             
1 37210U 10057A   26183.54298622 -.00000104  00000+0  00000+0 0  9998
2 37210   3.6833  68.8582 0004847 189.1507  18.0240  1.00271450 57444
SKYTERRA 1              
1 37218U 10061A   26183.45947541 -.00000110  00000+0  00000+0 0  9999
2 37218   5.1557  50.8271 0002354  37.5461 256.2279  1.00270568 57340
HYLAS 1                 
1 37237U 10065A   26181.30407082  .00000096  00000+0  00000+0 0  9999
2 37237   5.6751  72.8623 0001043 340.0885 348.6881  1.00272596  7010
INTELSAT 17 (IS-17)     
1 37238U 10065B   26183.54549911  .00000000  00000+0  00000+0 0  9991
2 37238   0.0315  85.4458 0002652  36.3249  61.1692  1.00271792 53406
BEIDOU-2 IGSO-2         
1 37256U 10068A   26181.67923229 -.00000187  00000+0  00000+0 0  9991
2 37256  47.5224 271.6646 0056566 213.8845 145.9362  1.00279341 56930
EUTELSAT KA-SAT 9A      
1 37258U 10069A   26183.58434091  .00000072  00000+0  00000+0 0  9992
2 37258   0.0605  12.7072 0003862 123.3444   3.9181  1.00271458 44162
HISPASAT 30W-5          
1 37264U 10070A   26183.43395133 -.00000205  00000+0  00000+0 0  9997
2 37264   0.0395 107.4964 0005844   6.5441 292.6603  1.00271603 53335
KOREASAT 6              
1 37265U 10070B   26183.59009976 -.00000101  00000+0  00000+0 0  9997
2 37265   0.0148  62.9648 0002675  49.8471 180.1370  1.00272162 56929
BEIDOU-2 IGSO-3         
1 37384U 11013A   26183.55754922 -.00000159  00000+0  00000+0 0  9994
2 37384  62.4287  40.0069 0035256 183.9703   4.4649  1.00264616 55819
INTELSAT 28 (IS-28)     
1 37392U 11016A   26183.43369133 -.00000215  00000+0  00000+0 0  9992
2 37392   1.8433  82.4463 0003953  21.7753 300.6380  1.00272308 53435
YAHSAT 1A               
1 37393U 11016B   26183.59300762  .00000000  00000+0  00000+0 0  9994
2 37393   0.0187  38.4670 0003411  72.6467  75.5041  1.00268892 42567
SBIRS GEO-1 (USA 230)   
1 37481U 11019A   26183.23642862  .00000108  00000+0  00000+0 0  9995
2 37481   4.5687  53.1147 0001918  40.4222 323.6495  1.00272130 55557
TELSTAR 14R             
1 37602U 11021A   26183.57011302 -.00000269  00000+0  00000+0 0  9998
2 37602   0.0548  82.3605 0002250 354.1072 346.3909  1.00271124 55981
GSAT-8                  
1 37605U 11022A   26183.45090966  .00000094  00000+0  00000+0 0  9997
2 37605   2.1682  81.6485 0001861 172.6109 243.6573  1.00272752 53370
ST-2                    
1 37606U 11022B   26183.60003220 -.00000201  00000+0  00000+0 0  9993
2 37606   0.0173  45.2732 0001743  66.8476 112.5539  1.00271962 55431
ZHONGXING-10            
1 37677U 11026A   26183.66590363 -.00000179  00000+0  00000+0 0  9994
2 37677   1.0854  84.0380 0003808  11.3043 150.6205  1.00271947 55150
SES-3                   
1 37748U 11035A   26183.41965126 -.00000092  00000+0  00000+0 0  9993
2 37748   1.3640  82.9368 0002402   9.8526 235.7502  1.00272306 54744
KAZSAT-2                
1 37749U 11035B   26183.45714106 -.00000187  00000+0  00000+0 0  9993
2 37749   0.0171  77.8214 0001791  76.8378  16.9135  1.00273410 53558
BEIDOU-2 IGSO-4         
1 37763U 11038A   26181.94400016  .00000017  00000+0  00000+0 0  9997
2 37763  54.6040 165.5504 0159650 231.3791 315.8344  1.00282911 54781
ASTRA 1N                
1 37775U 11041A   26183.58642093  .00000130  00000+0  00000+0 0  9995
2 37775   0.0898  44.2622 0005879  55.7608  50.8904  1.00272787 44688
BSAT-3C (JCSAT-110R)    
1 37776U 11041B   26183.65021664 -.00000340  00000+0  00000+0 0  9993
2 37776   0.0287 312.8059 0000729 192.3045 119.5997  1.00272510 50621
