OBJECT_NAME,OBJECT_ID,EPOCH,MEAN_MOTION,ECCENTRICITY,INCLINATION,RA_OF_ASC_NODE,ARG_OF_PERICENTER,MEAN_ANOMALY,EPHEMERIS_TYPE,CLASSIFICATION_TYPE,NORAD_CAT_ID,ELEMENT_SET_NO,REV_AT_EPOCH,BSTAR,MEAN_MOTION_DOT,MEAN_MOTION_DDOT
BEIDOU-2 G3,2010-024A,2026-07-02T16:10:11.207712,1.00270893,.00079352,4.5505,61.4499,357.6659,183.8078,0,U,36590,999,5892,0,-.127E-5,0
BADR-5,2010-025A,2026-07-02T14:07:26.480352,1.00270077,.00043951,0.0532,116.9430,71.8102,334.1971,0,U,36592,999,5337,0,.164E-5,0
COMS 1,2010-032A,2026-07-02T07:12:07.401888,0.99168940,.00118101,4.8416,75.1789,13.6965,312.7503,0,U,36744,999,5123,0,-.79E-6,0
ARABSAT-5A,2010-032B,2026-07-02T05:34:20.518752,1.00274494,.000575,0.0823,58.1154,58.2605,277.9898,0,U,36745,999,5879,0,.164E-5,0
ECHOSTAR 15,2010-034A,2026-07-02T13:24:59.296032,1.00270003,.00026273,0.0362,284.6056,149.5487,288.9010,0,U,36792,999,5847,0,.1E-6,0
BEIDOU-2 IGSO-1,2010-036A,2026-06-30T08:59:38.680800,1.00268449,.00588274,54.3057,162.8407,225.1163,132.8817,0,U,36828,999,5822,0,-.82E-6,0
NILESAT 201,2010-037A,2026-07-02T08:48:53.294400,1.00272073,.000545,0.0443,202.1964,284.7337,278.7042,0,U,36830,999,5852,0,-.47E-6,0
RASCOM-QAF 1R,2010-037B,2026-07-02T08:51:45.518112,1.00271327,.0006547,0.0077,36.5331,56.8823,322.8209,0,U,36831,999,5845,0,.29E-6,0
AEHF-1 (USA 214),2010-039A,2026-07-02T07:16:51.948192,1.00269211,.00041306,8.2558,67.8476,30.1369,321.5352,0,U,36868,999,5380,0,.154E-5,0
XM-5,2010-053A,2026-07-02T11:41:38.817312,1.00274106,.00025032,0.0660,267.8225,285.3516,147.5652,0,U,37185,999,5763,0,-.13E-6,0
BSAT-3B,2010-056B,2026-07-02T14:17:36.555072,1.00269228,.00023695,0.0613,233.3611,296.1339,75.3666,0,U,37207,999,5225,0,-.339E-5,0
BEIDOU-2 G4,2010-057A,2026-07-02T13:01:54.009408,1.00271450,.00048471,3.6833,68.8582,189.1507,18.0240,0,U,37210,999,5744,0,-.104E-5,0
SKYTERRA 1,2010-061A,2026-07-02T11:01:38.675424,1.00270568,.0002354,5.1557,50.8271,37.5461,256.2279,0,U,37218,999,5734,0,-.11E-5,0
HYLAS 1,2010-065A,2026-06-30T07:17:51.718848,1.00272596,.00010436,5.6751,72.8623,340.0885,348.6881,0,U,37237,999,701,0,.96E-6,0
INTELSAT 17 (IS-17),2010-065B,2026-07-02T13:05:31.123104,1.00271792,.00026522,0.0315,85.4458,36.3249,61.1692,0,U,37238,999,5340,0,0,0
BEIDOU-2 IGSO-2,2010-068A,2026-06-30T16:18:05.669856,1.00279341,.00565661,47.5224,271.6646,213.8845,145.9362,0,U,37256,999,5693,0,-.187E-5,0
EUTELSAT KA-SAT 9A,2010-069A,2026-07-02T14:01:27.054624,1.00271458,.00038623,0.0605,12.7072,123.3444,3.9181,0,U,37258,999,4416,0,.72E-6,0
HISPASAT 30W-5,2010-070A,2026-07-02T10:24:53.394912,1.00271603,.00058444,0.0395,107.4964,6.5441,292.6603,0,U,37264,999,5333,0,-.205E-5,0
KOREASAT 6,2010-070B,2026-07-02T14:09:44.619264,1.00272162,.0002675,0.0148,62.9648,49.8471,180.1370,0,U,37265,999,5692,0,-.101E-5,0
BEIDOU-2 IGSO-3,2011-013A,2026-07-02T13:22:52.252608,1.00264616,.00352563,62.4287,40.0069,183.9703,4.4649,0,U,37384,999,5581,0,-.159E-5,0
INTELSAT 28 (IS-28),2011-016A,2026-07-02T10:24:30.930912,1.00272308,.00039536,1.8433,82.4463,21.7753,300.6380,0,U,37392,999,5343,0,-.215E-5,0
YAHSAT 1A,2011-016B,2026-07-02T14:13:55.858368,1.00268892,.00034119,0.0187,38.4670,72.6467,75.5041,0,U,37393,999,4256,0,0,0
SBIRS GEO-1 (USA 230),2011-019A,2026-07-02T05:40:27.432768,1.00272130,.00019181,4.5687,53.1147,40.4222,323.6495,0,U,37481,999,5555,0,.108E-5,0
TELSTAR 14R,2011-021A,2026-07-02T13:40:57.764928,1.00271124,.00022502,0.0548,82.3605,354.1072,346.3909,0,U,37602,999,5598,0,-.269E-5,0
GSAT-8,2011-022A,2026-07-02T10:49:18.594624,1.00272752,.00018619,2.1682,81.6485,172.6109,243.6573,0,U,37605,999,5337,0,.94E-6,0
ST-2,2011-022B,2026-07-02T14:24:02.782080,1.00271962,.00017436,0.0173,45.2732,66.8476,112.5539,0,U,37606,999,5543,0,-.201E-5,0
ZHONGXING-10,2011-026A,2026-07-02T15:58:54.073632,1.00271947,.0003808,1.0854,84.0380,11.3043,150.6205,0,U,37677,999,5515,0,-.179E-5,0
SES-3,2011-035A,2026-07-02T10:04:17.868864,1.00272306,.00024024,1.3640,82.9368,9.8526,235.7502,0,U,37748,999,5474,0,-.92E-6,0
KAZSAT-2,2011-035B,2026-07-02T10:58:16.987584,1.00273410,.00017911,0.0171,77.8214,76.8378,16.9135,0,U,37749,999,5355,0,-.187E-5,0
BEIDOU-2 IGSO-4,2011-038A,2026-06-30T22:39:21.613824,1.00282911,.01596501,54.6040,165.5504,231.3791,315.8344,0,U,37763,999,5478,0,.17E-6,0
ASTRA 1N,2011-041A,2026-07-02T14:04:26.768352,1.00272787,.00058797,0.0898,44.2622,55.7608,50.8904,0,U,37775,999,4468,0,.13E-5,0
BSAT-3C (JCSAT-110R),2011-041B,2026-07-02T15:36:18.717696,1.00272510,.00007291,0.0287,312.8059,192.3045,119.5997,0,U,37776,999,5062,0,-.34E-5,0
